{
    "links": {
        "self": "http://www.neowsapp.com/rest/v1/neo/3719015?api_key=iIulBulltgU6a56xZRHN4H3l9WmuAYTsLGpBGhQ2"
    },
    "id": "3719015",
    "neo_reference_id": "3719015",
    "name": "(2015 HY176)",
    "designation": "2015 HY176",
    "nasa_jpl_url": "http://ssd.jpl.nasa.gov/sbdb.cgi?sstr=3719015",
    "absolute_magnitude_h": 21.7,
    "estimated_diameter": {
        "kilometers": {
            "estimated_diameter_min": 0.1214940408,
            "estimated_diameter_max": 0.2716689341
        },
        "meters": {
            "estimated_diameter_min": 121.4940407996,
            "estimated_diameter_max": 271.6689340891
        },
        "miles": {
            "estimated_diameter_min": 0.0754928736,
            "estimated_diameter_max": 0.1688071972
        },
        "feet": {
            "estimated_diameter_min": 398.6025088171,
            "estimated_diameter_max": 891.3023057169
        }
    },
    "is_potentially_hazardous_asteroid": false,
    "close_approach_data": [
        {
            "close_approach_date": "1994-05-07",
            "close_approach_date_full": "1994-May-07 11:09",
            "epoch_date_close_approach": 768308940000,
            "relative_velocity": {
                "kilometers_per_second": "17.4888110096",
                "kilometers_per_hour": "62959.7196344203",
                "miles_per_hour": "39120.7213472874"
            },
            "miss_distance": {
                "astronomical": "0.2830864927",
                "lunar": "110.1206456603",
                "kilometers": "42349136.333690549",
                "miles": "26314533.0966416162"
            },
            "orbiting_body": "Earth"
        },
        {
            "close_approach_date": "2015-05-17",
            "close_approach_date_full": "2015-May-17 22:27",
            "epoch_date_close_approach": 1431901620000,
            "relative_velocity": {
                "kilometers_per_second": "10.5310453099",
                "kilometers_per_hour": "37911.7631155241",
                "miles_per_hour": "23556.8952536433"
            },
            "miss_distance": {
                "astronomical": "0.3392969055",
                "lunar": "131.9864962395",
                "kilometers": "50758094.360391285",
                "miles": "31539617.324058333"
            },
            "orbiting_body": "Earth"
        },
        {
            "close_approach_date": "2023-05-04",
            "close_approach_date_full": "2023-May-04 01:43",
            "epoch_date_close_approach": 1683164580000,
            "relative_velocity": {
                "kilometers_per_second": "19.8238832295",
                "kilometers_per_hour": "71365.9796260308",
                "miles_per_hour": "44344.0443959634"
            },
            "miss_distance": {
                "astronomical": "0.3707323316",
                "lunar": "144.2148769924",
                "kilometers": "55460767.147493692",
                "miles": "34461722.6941372696"
            },
            "orbiting_body": "Earth"
        }
    ],
    "orbital_data": {
        "orbit_id": "5",
        "orbit_determination_date": "2017-04-06 08:34:00",
        "first_observation_date": "2015-04-25",
        "last_observation_date": "2015-05-18",
        "data_arc_in_days": 23,
        "observations_used": 25,
        "orbit_uncertainty": "7",
        "minimum_orbit_intersection": ".186134",
        "jupiter_tisserand_invariant": "3.739",
        "epoch_osculation": "2459000.5",
        "eccentricity": ".4508569409666762",
        "semi_major_axis": "1.907770608241151",
        "inclination": "20.60979520309466",
        "ascending_node_longitude": "35.67475168992479",
        "orbital_period": "962.4710100743536",
        "perihelion_distance": "1.04763898774341",
        "perihelion_argument": "243.4649524379121",
        "aphelion_distance": "2.767902228738891",
        "perihelion_time": "2459141.672797300622",
        "mean_anomaly": "307.196116562204",
        "mean_motion": ".3740372398044373",
        "equinox": "J2000",
        "orbit_class": {
            "orbit_class_type": "AMO",
            "orbit_class_description": "Near-Earth asteroid orbits similar to that of 1221 Amor",
            "orbit_class_range": "1.017 AU < q (perihelion) < 1.3 AU"
        }
    },
    "is_sentry_object": false
}